<?xml version="1.0" encoding="UTF-8"?>
<ndm xmlns:xsi="http://www.w3.org/2001/XMLSchema-instance" xsi:noNamespaceSchemaLocation="https://sanaregistry.org/r/ndmxml_unqualified/ndmxml-2.0.0-master-2.0.xsd">
<omm id="CCSDS_OMM_VERS" version="2.0">
<header><CREATION_DATE/><ORIGINATOR/></header><body><segment><metadata><OBJECT_NAME>IRIDIUM 57</OBJECT_NAME><OBJECT_ID>1998-019B</OBJECT_ID><CENTER_NAME>EARTH</CENTER_NAME><REF_FRAME>TEME</REF_FRAME><TIME_SYSTEM>UTC</TIME_SYSTEM><MEAN_ELEMENT_THEORY>SGP4</MEAN_ELEMENT_THEORY></metadata><data><meanElements><EPOCH>2024-12-24T12:33:34.704576</EPOCH><MEAN_MOTION>14.35649652</MEAN_MOTION><ECCENTRICITY>.0001939</ECCENTRICITY><INCLINATION>86.3969</INCLINATION><RA_OF_ASC_NODE>218.3720</RA_OF_ASC_NODE><ARG_OF_PERICENTER>84.9693</ARG_OF_PERICENTER><MEAN_ANOMALY>275.1725</MEAN_ANOMALY></meanElements><tleParameters><EPHEMERIS_TYPE>0</EPHEMERIS_TYPE><CLASSIFICATION_TYPE>U</CLASSIFICATION_TYPE><NORAD_CAT_ID>25273</NORAD_CAT_ID><ELEMENT_SET_NO>999</ELEMENT_SET_NO><REV_AT_EPOCH>39993</REV_AT_EPOCH><BSTAR>.26704E-3</BSTAR><MEAN_MOTION_DOT>.789E-5</MEAN_MOTION_DOT><MEAN_MOTION_DDOT>0</MEAN_MOTION_DDOT></tleParameters></data></segment></body></omm>
<omm id="CCSDS_OMM_VERS" version="2.0">
<header><CREATION_DATE/><ORIGINATOR/></header><body><segment><metadata><OBJECT_NAME>IRIDIUM 63</OBJECT_NAME><OBJECT_ID>1998-021B</OBJECT_ID><CENTER_NAME>EARTH</CENTER_NAME><REF_FRAME>TEME</REF_FRAME><TIME_SYSTEM>UTC</TIME_SYSTEM><MEAN_ELEMENT_THEORY>SGP4</MEAN_ELEMENT_THEORY></metadata><data><meanElements><EPOCH>2024-12-23T23:33:45.852480</EPOCH><MEAN_MOTION>14.36263841</MEAN_MOTION><ECCENTRICITY>.0002143</ECCENTRICITY><INCLINATION>86.4001</INCLINATION><RA_OF_ASC_NODE>155.5906</RA_OF_ASC_NODE><ARG_OF_PERICENTER>93.2292</ARG_OF_PERICENTER><MEAN_ANOMALY>266.9150</MEAN_ANOMALY></meanElements><tleParameters><EPHEMERIS_TYPE>0</EPHEMERIS_TYPE><CLASSIFICATION_TYPE>U</CLASSIFICATION_TYPE><NORAD_CAT_ID>25286</NORAD_CAT_ID><ELEMENT_SET_NO>999</ELEMENT_SET_NO><REV_AT_EPOCH>39896</REV_AT_EPOCH><BSTAR>.36208E-3</BSTAR><MEAN_MOTION_DOT>.1076E-4</MEAN_MOTION_DOT><MEAN_MOTION_DDOT>0</MEAN_MOTION_DDOT></tleParameters></data></segment></body></omm>
<omm id="CCSDS_OMM_VERS" version="2.0">
<header><CREATION_DATE/><ORIGINATOR/></header><body><segment><metadata><OBJECT_NAME>IRIDIUM 69</OBJECT_NAME><OBJECT_ID>1998-026A</OBJECT_ID><CENTER_NAME>EARTH</CENTER_NAME><REF_FRAME>TEME</REF_FRAME><TIME_SYSTEM>UTC</TIME_SYSTEM><MEAN_ELEMENT_THEORY>SGP4</MEAN_ELEMENT_THEORY></metadata><data><meanElements><EPOCH>2024-12-24T01:00:21.614976</EPOCH><MEAN_MOTION>14.40604813</MEAN_MOTION><ECCENTRICITY>.0001109</ECCENTRICITY><INCLINATION>86.4000</INCLINATION><RA_OF_ASC_NODE>169.3658</RA_OF_ASC_NODE><ARG_OF_PERICENTER>183.1993</ARG_OF_PERICENTER><MEAN_ANOMALY>176.9199</MEAN_ANOMALY></meanElements><tleParameters><EPHEMERIS_TYPE>0</EPHEMERIS_TYPE><CLASSIFICATION_TYPE>U</CLASSIFICATION_TYPE><NORAD_CAT_ID>25319</NORAD_CAT_ID><ELEMENT_SET_NO>999</ELEMENT_SET_NO><REV_AT_EPOCH>39808</REV_AT_EPOCH><BSTAR>.3176E-3</BSTAR><MEAN_MOTION_DOT>.1032E-4</MEAN_MOTION_DOT><MEAN_MOTION_DDOT>0</MEAN_MOTION_DDOT></tleParameters></data></segment></body></omm>
<omm id="CCSDS_OMM_VERS" version="2.0">
<header><CREATION_DATE/><ORIGINATOR/></header><body><segment><metadata><OBJECT_NAME>IRIDIUM 71</OBJECT_NAME><OBJECT_ID>1998-026B</OBJECT_ID><CENTER_NAME>EARTH</CENTER_NAME><REF_FRAME>TEME</REF_FRAME><TIME_SYSTEM>UTC</TIME_SYSTEM><MEAN_ELEMENT_THEORY>SGP4</MEAN_ELEMENT_THEORY></metadata><data><meanElements><EPOCH>2024-12-24T10:06:43.955712</EPOCH><MEAN_MOTION>14.40846717</MEAN_MOTION><ECCENTRICITY>.0001207</ECCENTRICITY><INCLINATION>86.3995</INCLINATION><RA_OF_ASC_NODE>163.9342</RA_OF_ASC_NODE><ARG_OF_PERICENTER>11.2357</ARG_OF_PERICENTER><MEAN_ANOMALY>348.8869</MEAN_ANOMALY></meanElements><tleParameters><EPHEMERIS_TYPE>0</EPHEMERIS_TYPE><CLASSIFICATION_TYPE>U</CLASSIFICATION_TYPE><NORAD_CAT_ID>25320</NORAD_CAT_ID><ELEMENT_SET_NO>999</ELEMENT_SET_NO><REV_AT_EPOCH>39867</REV_AT_EPOCH><BSTAR>.37213E-3</BSTAR><MEAN_MOTION_DOT>.1211E-4</MEAN_MOTION_DOT><MEAN_MOTION_DDOT>0</MEAN_MOTION_DDOT></tleParameters></data></segment></body></omm>
<omm id="CCSDS_OMM_VERS" version="2.0">
<header><CREATION_DATE/><ORIGINATOR/></header><body><segment><metadata><OBJECT_NAME>IRIDIUM 73</OBJECT_NAME><OBJECT_ID>1998-032C</OBJECT_ID><CENTER_NAME>EARTH</CENTER_NAME><REF_FRAME>TEME</REF_FRAME><TIME_SYSTEM>UTC</TIME_SYSTEM><MEAN_ELEMENT_THEORY>SGP4</MEAN_ELEMENT_THEORY></metadata><data><meanElements><EPOCH>2024-12-23T09:49:32.839104</EPOCH><MEAN_MOTION>14.51264345</MEAN_MOTION><ECCENTRICITY>.0001601</ECCENTRICITY><INCLINATION>86.4425</INCLINATION><RA_OF_ASC_NODE>121.4711</RA_OF_ASC_NODE><ARG_OF_PERICENTER>108.5010</ARG_OF_PERICENTER><MEAN_ANOMALY>251.6369</MEAN_ANOMALY></meanElements><tleParameters><EPHEMERIS_TYPE>0</EPHEMERIS_TYPE><CLASSIFICATION_TYPE>U</CLASSIFICATION_TYPE><NORAD_CAT_ID>25344</NORAD_CAT_ID><ELEMENT_SET_NO>999</ELEMENT_SET_NO><REV_AT_EPOCH>40506</REV_AT_EPOCH><BSTAR>.42068E-3</BSTAR><MEAN_MOTION_DOT>.1692E-4</MEAN_MOTION_DOT><MEAN_MOTION_DDOT>0</MEAN_MOTION_DDOT></tleParameters></data></segment></body></omm>
<omm id="CCSDS_OMM_VERS" version="2.0">
<header><CREATION_DATE/><ORIGINATOR/></header><body><segment><metadata><OBJECT_NAME>IRIDIUM 82</OBJECT_NAME><OBJECT_ID>1998-051A</OBJECT_ID><CENTER_NAME>EARTH</CENTER_NAME><REF_FRAME>TEME</REF_FRAME><TIME_SYSTEM>UTC</TIME_SYSTEM><MEAN_ELEMENT_THEORY>SGP4</MEAN_ELEMENT_THEORY></metadata><data><meanElements><EPOCH>2024-12-24T11:51:38.193120</EPOCH><MEAN_MOTION>15.20785991</MEAN_MOTION><ECCENTRICITY>.0103894</ECCENTRICITY><INCLINATION>86.3733</INCLINATION><RA_OF_ASC_NODE>194.8087</RA_OF_ASC_NODE><ARG_OF_PERICENTER>235.0124</ARG_OF_PERICENTER><MEAN_ANOMALY>124.1334</MEAN_ANOMALY></meanElements><tleParameters><EPHEMERIS_TYPE>0</EPHEMERIS_TYPE><CLASSIFICATION_TYPE>U</CLASSIFICATION_TYPE><NORAD_CAT_ID>25467</NORAD_CAT_ID><ELEMENT_SET_NO>999</ELEMENT_SET_NO><REV_AT_EPOCH>39730</REV_AT_EPOCH><BSTAR>.11904E-2</BSTAR><MEAN_MOTION_DOT>.30484E-3</MEAN_MOTION_DOT><MEAN_MOTION_DDOT>0</MEAN_MOTION_DDOT></tleParameters></data></segment></body></omm>
</ndm>
