IRIDIUM 57              
1 25273U 98019B   24359.52331834  .00000789  00000+0  26704-3 0  9993
2 25273  86.3969 218.3720 0001939  84.9693 275.1725 14.35649652399933
IRIDIUM 63              
1 25286U 98021B   24358.98178070  .00001076  00000+0  36208-3 0  9990
2 25286  86.4001 155.5906 0002143  93.2292 266.9150 14.36263841398964
IRIDIUM 69              
1 25319U 98026A   24359.04191684  .00001032  00000+0  31760-3 0  9996
2 25319  86.4000 169.3658 0001109 183.1993 176.9199 14.40604813398084
IRIDIUM 71              
1 25320U 98026B   24359.42134208  .00001211  00000+0  37213-3 0  9997
2 25320  86.3995 163.9342 0001207  11.2357 348.8869 14.40846717398672
IRIDIUM 73              
1 25344U 98032C   24358.40940786  .00001692  00000+0  42068-3 0  9990
2 25344  86.4425 121.4711 0001601 108.5010 251.6369 14.51264345405061
IRIDIUM 82              
1 25467U 98051A   24359.49419205  .00030484  00000+0  11904-2 0  9999
2 25467  86.3733 194.8087 0103894 235.0124 124.1334 15.20785991397302
